{"fetched_at":"2026-03-30T06:02:59Z","count":15439,"tles":[{"name":"STARLINK-31224","line1":"1 59029U 24038G   26087.80285762 -.00001057  00000+0 -28896-4 0  9994","line2":"2 59029  43.0024 278.8754 0001046 239.3648 120.7101 15.27587692117684","category":"Starlink"}]}